EUTELSAT 8 WEST B       
1 40875U 15039B   26025.28529597 -.00000051  00000+0  00000+0 0  9999
2 40875   0.0667  17.1853 0004006 287.5125 274.5893  1.00270902 38224
EUTELSAT 9B             
1 41310U 16005A   26025.14602183  .00000076  00000+0  00000+0 0  9992
2 41310   0.0176  46.1938 0004706 248.6907 251.1121  1.00269935 36680
EUTELSAT 65 WEST A      
1 41382U 16014A   26025.31711491 -.00000262  00000+0  00000+0 0  9991
2 41382   0.0732 307.0911 0002315 354.6942 231.7977  1.00270288 36101
EUTELSAT 117 WEST B     
1 41589U 16038B   26025.22376478  .00000003  00000+0  00000+0 0  9990
2 41589   0.0033 130.1730 0000161 266.9045  51.0094  1.00272308 35224
EUTELSAT 172B           
1 42741U 17029B   26025.24967576  .00000008  00000+0  00000+0 0  9994
2 42741   0.0268 124.8325 0000135 123.7765 137.8118  1.00271055 32297
EUTELSAT 7C             
1 44334U 19034B   26024.68239280  .00000063  00000+0  00000+0 0  9994
2 44334   0.0775 185.7123 0003339 104.7254  86.1934  1.00270310  5399
EUTELSAT 5 WEST B       
1 44624U 19067A   26025.19142009 -.00000028  00000+0  00000+0 0  9993
2 44624   0.0736 326.2511 0003205 339.3144 242.8300  1.00271387 23008
EUTELSAT KONNECT        
1 45027U 20005B   26025.14567516  .00000064  00000+0  00000+0 0  9993
2 45027   0.0658  95.1258 0001577 181.6622 267.2961  1.00269513 22908
